0 SL-8 DEB
1 23007U 93036C   13279.55189030  .00000741  00000-0  24753-3 0  6629
2 23007 074.0287 080.4527 0012043 084.1442 339.9611 14.39158902 61776
0 SL-8 DEB
1 23007U 93036C   13281.85595417  .00000909  00000-0  30168-3 0  6639
2 23007 074.0289 076.1991 0012040 078.7838 037.8063 14.39165125 62108
0 SL-8 DEB
1 23007U 93036C   13286.86251419  .00000926  00000-0  30713-3 0  6653
2 23007 074.0299 066.9563 0012090 067.2029 057.9511 14.39173505 62822
0 SL-8 DEB
1 23007U 93036C   13289.34695068  .00000947  00000-0  31385-3 0  6661
2 23007 074.0303 062.3699 0012093 061.3700 330.5400 14.39181214 63185
0 SL-8 DEB
1 23007U 93036C   13291.36267066  .00001049  00000-0  34675-3 0  6679
2 23007 074.0305 058.6491 0012145 056.7362 334.5206 14.39185054 63471
0 SL-8 DEB
1 23007U 93036C   13293.45491120  .00001202  00000-0  39600-3 0  6686
2 23007 074.0307 054.7870 0012212 051.8770 015.0564 14.39189718 63777
